STARLINK-2734           
1 48657U 21044V   26068.41318936 -.00000462  00000+0 -34778-5 0  9995
2 48657  53.1598 115.1298 0001179  87.3205 272.7931 15.30191006263786
NUSAT-48 (HENRIETTA LE*)
1 60498U 24149AG  26068.80506098  .00012988  00000+0  45212-3 0  9999
2 60498  97.3923 150.8264 0002754 263.3026  96.7901 15.29812597 86946
