[{"OBJECT_NAME":"STARLINK-2734","OBJECT_ID":"2021-044V","EPOCH":"2026-03-09T09:54:59.560704","MEAN_MOTION":15.30191006,"ECCENTRICITY":0.00011795,"INCLINATION":53.1598,"RA_OF_ASC_NODE":115.1298,"ARG_OF_PERICENTER":87.3205,"MEAN_ANOMALY":272.7931,"EPHEMERIS_TYPE":0,"CLASSIFICATION_TYPE":"U","NORAD_CAT_ID":48657,"ELEMENT_SET_NO":999,"REV_AT_EPOCH":26378,"BSTAR":-3.477763e-6,"MEAN_MOTION_DOT":-4.62e-6,"MEAN_MOTION_DDOT":0},{"OBJECT_NAME":"NUSAT-48 (HENRIETTA LEAVITT)","OBJECT_ID":"2024-149AG","EPOCH":"2026-03-09T19:19:17.269536","MEAN_MOTION":15.29812597,"ECCENTRICITY":0.00027538,"INCLINATION":97.3923,"RA_OF_ASC_NODE":150.8264,"ARG_OF_PERICENTER":263.3026,"MEAN_ANOMALY":96.7901,"EPHEMERIS_TYPE":0,"CLASSIFICATION_TYPE":"U","NORAD_CAT_ID":60498,"ELEMENT_SET_NO":999,"REV_AT_EPOCH":8694,"BSTAR":0.00045211745,"MEAN_MOTION_DOT":0.00012988,"MEAN_MOTION_DDOT":0}]
